LEMUR-2-THEFALCONER     
1 63264U 25052BG  26068.95148778  .00006306  00000+0  55972-3 0  9991
2 63264  97.6968 322.9473 0002114  10.9074 349.2193 14.96514677 53848
STARLINK-36280          
1 67211U 25304V   26068.67502086 -.00006673  00000+0 -55224-3 0  9991
2 67211  70.0027 174.4498 0003112 275.5816  84.4988 14.98313787 13885
